start=new Date('2022-09-07T00:00:00.000Z').valueOf();
sats=[{"EPHEMERIS_TYPE":"0","BSTAR":"-0.00015549000000","GP_ID":"211918273","MEAN_ANOMALY":"296.6278","REF_FRAME":"TEME","OBJECT_ID":"2020-055A","MEAN_MOTION_DOT":"-0.00002595","DECAY_DATE":null,"OBJECT_TYPE":"PAYLOAD","TLE_LINE1":"1 46027U 20055A   22249.79755119 -.00002595  00000-0 -15549-3 0  9994","PERIAPSIS":"546.374","COUNTRY_CODE":"US","RCS_SIZE":"LARGE","CLASSIFICATION_TYPE":"U","FILE":"3561419","LAUNCH_DATE":"2020-08-07","EPOCH":"2022-09-06T19:08:28.422816","TLE_LINE2":"2 46027  53.0570 112.2809 0001307  63.4845 296.6278 15.06378666115976","APOAPSIS":"548.184","RA_OF_ASC_NODE":"112.2809","SITE":"AFETR","PERIOD":"95.593","CENTER_NAME":"EARTH","ARG_OF_PERICENTER":"63.4845","REV_AT_EPOCH":"11597","MEAN_MOTION_DDOT":"0.0000000000000","OBJECT_NAME":"STARLINK-1522","ECCENTRICITY":"0.00013070","MEAN_MOTION":"15.06378666","TIME_SYSTEM":"UTC","ELEMENT_SET_NO":"999","SEMIMAJOR_AXIS":"6925.414","INCLINATION":"53.0570","NORAD_CAT_ID":"46027","MEAN_ELEMENT_THEORY":"SGP4"},{"DECAY_DATE":null,"OBJECT_ID":"2020-055B","MEAN_MOTION_DOT":"-0.00002213","REF_FRAME":"TEME","MEAN_ANOMALY":"277.3395","BSTAR":"-0.00012976000000","GP_ID":"211919025","EPHEMERIS_TYPE":"0","CLASSIFICATION_TYPE":"U","FILE":"3561419","RCS_SIZE":"LARGE","COUNTRY_CODE":"US","TLE_LINE1":"1 46028U 20055B   22249.81228565 -.00002213  00000-0 -12976-3 0  9996","PERIAPSIS":"546.258","OBJECT_TYPE":"PAYLOAD","MEAN_MOTION_DDOT":"0.0000000000000","CENTER_NAME":"EARTH","SITE":"AFETR","PERIOD":"95.593","REV_AT_EPOCH":"11599","ARG_OF_PERICENTER":"82.7756","RA_OF_ASC_NODE":"112.1995","APOAPSIS":"548.240","TLE_LINE2":"2 46028  53.0541 112.1995 0001431  82.7756 277.3395 15.06388531115993","LAUNCH_DATE":"2020-08-07","EPOCH":"2022-09-06T19:29:41.480160","INCLINATION":"53.0541","MEAN_ELEMENT_THEORY":"SGP4","NORAD_CAT_ID":"46028","SEMIMAJOR_AXIS":"6925.384","ELEMENT_SET_NO":"999","TIME_SYSTEM":"UTC","ECCENTRICITY":"0.00014310","MEAN_MOTION":"15.06388531","OBJECT_NAME":"STARLINK-1523"},{"APOAPSIS":"548.377","TLE_LINE2":"2 46029  53.0527 112.2351 0001593  75.9929 284.1237 15.06380478115982","LAUNCH_DATE":"2020-08-07","EPOCH":"2022-09-06T19:19:04.666368","MEAN_MOTION_DDOT":"0.0000000000000","CENTER_NAME":"EARTH","SITE":"AFETR","PERIOD":"95.593","ARG_OF_PERICENTER":"75.9929","REV_AT_EPOCH":"11598","RA_OF_ASC_NODE":"112.2351","ECCENTRICITY":"0.00015930","MEAN_MOTION":"15.06380478","OBJECT_NAME":"STARLINK-1526","INCLINATION":"53.0527","NORAD_CAT_ID":"46029","MEAN_ELEMENT_THEORY":"SGP4","SEMIMAJOR_AXIS":"6925.408","ELEMENT_SET_NO":"999","TIME_SYSTEM":"UTC","MEAN_ANOMALY":"284.1237","BSTAR":"-0.00020404000000","GP_ID":"211919276","EPHEMERIS_TYPE":"0","DECAY_DATE":null,"OBJECT_ID":"2020-055C","MEAN_MOTION_DOT":"-0.00003318","REF_FRAME":"TEME","COUNTRY_CODE":"US","TLE_LINE1":"1 46029U 20055C   22249.80491512 -.00003318  00000-0 -20404-3 0  9992","PERIAPSIS":"546.170","OBJECT_TYPE":"PAYLOAD","CLASSIFICATION_TYPE":"U","FILE":"3561419","RCS_SIZE":"LARGE"},{"MEAN_MOTION":"15.06387834","ECCENTRICITY":"0.00012560","OBJECT_NAME":"STARLINK-1534","MEAN_ELEMENT_THEORY":"SGP4","NORAD_CAT_ID":"46030","INCLINATION":"53.0541","SEMIMAJOR_AXIS":"6925.386","ELEMENT_SET_NO":"999","TIME_SYSTEM":"UTC","APOAPSIS":"548.121","TLE_LINE2":"2 46030  53.0541 112.1688 0001256  86.7362 273.3771 15.06387834115941","EPOCH":"2022-09-06T19:45:37.400256","LAUNCH_DATE":"2020-08-07","MEAN_MOTION_DDOT":"0.0000000000000","ARG_OF_PERICENTER":"86.7362","REV_AT_EPOCH":"11594","SITE":"AFETR","CENTER_NAME":"EARTH","PERIOD":"95.593","RA_OF_ASC_NODE":"112.1688","COUNTRY_CODE":"US","PERIAPSIS":"546.381","TLE_LINE1":"1 46030U 20055D   22249.82334954 -.00003001  00000-0 -18271-3 0  9990","OBJECT_TYPE":"PAYLOAD","FILE":"3561419","CLASSIFICATION_TYPE":"U","RCS_SIZE":"LARGE","MEAN_ANOMALY":"273.3771","GP_ID":"211917527","BSTAR":"-0.00018271000000","EPHEMERIS_TYPE":"0","DECAY_DATE":null,"MEAN_MOTION_DOT":"-0.00003001","OBJECT_ID":"2020-055D","REF_FRAME":"TEME"},{"EPOCH":"2022-09-06T19:49:34.153536","LAUNCH_DATE":"2020-08-07","TLE_LINE2":"2 46031  53.0547 112.1426 0001370  72.4691 287.6448 15.06384615115978","APOAPSIS":"548.209","RA_OF_ASC_NODE":"112.1426","PERIOD":"95.593","SITE":"AFETR","CENTER_NAME":"EARTH","REV_AT_EPOCH":"11597","ARG_OF_PERICENTER":"72.4691","MEAN_MOTION_DDOT":"0.0000000000000","OBJECT_NAME":"STARLINK-1544","ECCENTRICITY":"0.00013700","MEAN_MOTION":"15.06384615","TIME_SYSTEM":"UTC","SEMIMAJOR_AXIS":"6925.396","ELEMENT_SET_NO":"999","INCLINATION":"53.0547","MEAN_ELEMENT_THEORY":"SGP4","NORAD_CAT_ID":"46031","EPHEMERIS_TYPE":"0","BSTAR":"-0.00017124000000","GP_ID":"211917774","MEAN_ANOMALY":"287.6448","REF_FRAME":"TEME","OBJECT_ID":"2020-055E","MEAN_MOTION_DOT":"-0.00002830","DECAY_DATE":null,"OBJECT_TYPE":"PAYLOAD","TLE_LINE1":"1 46031U 20055E   22249.82608974 -.00002830  00000-0 -17124-3 0  9992","PERIAPSIS":"546.312","COUNTRY_CODE":"US","RCS_SIZE":"LARGE","CLASSIFICATION_TYPE":"U","FILE":"3561419"},{"COUNTRY_CODE":"US","PERIAPSIS":"546.271","TLE_LINE1":"1 46032U 20055F   22249.79017969 -.00003115  00000-0 -19039-3 0  9991","OBJECT_TYPE":"PAYLOAD","FILE":"3561419","CLASSIFICATION_TYPE":"U","RCS_SIZE":"LARGE","MEAN_ANOMALY":"277.9923","GP_ID":"211918526","BSTAR":"-0.00019039000000","EPHEMERIS_TYPE":"0","DECAY_DATE":null,"MEAN_MOTION_DOT":"-0.00003115","OBJECT_ID":"2020-055F","REF_FRAME":"TEME","MEAN_MOTION":"15.06380475","ECCENTRICITY":"0.00014470","OBJECT_NAME":"STARLINK-1555","NORAD_CAT_ID":"46032","MEAN_ELEMENT_THEORY":"SGP4","INCLINATION":"53.0549","ELEMENT_SET_NO":"999","SEMIMAJOR_AXIS":"6925.408","TIME_SYSTEM":"UTC","APOAPSIS":"548.276","TLE_LINE2":"2 46032  53.0549 112.3232 0001447  82.1230 277.9923 15.06380475115981","EPOCH":"2022-09-06T18:57:51.525216","LAUNCH_DATE":"2020-08-07","MEAN_MOTION_DDOT":"0.0000000000000","ARG_OF_PERICENTER":"82.1230","REV_AT_EPOCH":"11598","SITE":"AFETR","CENTER_NAME":"EARTH","PERIOD":"95.593","RA_OF_ASC_NODE":"112.3232"},{"COUNTRY_CODE":"US","OBJECT_TYPE":"PAYLOAD","PERIAPSIS":"546.368","TLE_LINE1":"1 46033U 20055G   22249.77173668 -.00002037  00000-0 -11794-3 0  9991","RCS_SIZE":"LARGE","FILE":"3561419","CLASSIFICATION_TYPE":"U","MEAN_ANOMALY":"268.5603","EPHEMERIS_TYPE":"0","GP_ID":"211918777","BSTAR":"-0.00011794000000","MEAN_MOTION_DOT":"-0.00002037","OBJECT_ID":"2020-055G","DECAY_DATE":null,"REF_FRAME":"TEME","MEAN_MOTION":"15.06389746","ECCENTRICITY":"0.00012660","OBJECT_NAME":"STARLINK-1556","NORAD_CAT_ID":"46033","MEAN_ELEMENT_THEORY":"SGP4","INCLINATION":"53.0526","TIME_SYSTEM":"UTC","SEMIMAJOR_AXIS":"6925.380","ELEMENT_SET_NO":"999","APOAPSIS":"548.122","EPOCH":"2022-09-06T18:31:18.049152","LAUNCH_DATE":"2020-08-07","TLE_LINE2":"2 46033  53.0526 112.4012 0001266  91.5531 268.5603 15.06389746115959","REV_AT_EPOCH":"11595","ARG_OF_PERICENTER":"91.5531","SITE":"AFETR","CENTER_NAME":"EARTH","PERIOD":"95.593","MEAN_MOTION_DDOT":"0.0000000000000","RA_OF_ASC_NODE":"112.4012"},{"OBJECT_ID":"2020-055H","MEAN_MOTION_DOT":"-0.00003465","DECAY_DATE":null,"REF_FRAME":"TEME","MEAN_ANOMALY":"284.5666","EPHEMERIS_TYPE":"0","BSTAR":"-0.00021397000000","GP_ID":"211918026","RCS_SIZE":"LARGE","CLASSIFICATION_TYPE":"U","FILE":"3561419","COUNTRY_CODE":"US","OBJECT_TYPE":"PAYLOAD","TLE_LINE1":"1 46034U 20055H   22249.77543570 -.00003465  00000-0 -21397-3 0  9991","PERIAPSIS":"546.450","CENTER_NAME":"EARTH","SITE":"AFETR","PERIOD":"95.593","REV_AT_EPOCH":"11595","ARG_OF_PERICENTER":"75.5455","MEAN_MOTION_DDOT":"0.0000000000000","RA_OF_ASC_NODE":"112.3714","APOAPSIS":"548.098","LAUNCH_DATE":"2020-08-07","EPOCH":"2022-09-06T18:36:37.644480","TLE_LINE2":"2 46034  53.0525 112.3714 0001190  75.5455 284.5666 15.06380347115955","INCLINATION":"53.0525","NORAD_CAT_ID":"46034","MEAN_ELEMENT_THEORY":"SGP4","TIME_SYSTEM":"UTC","SEMIMAJOR_AXIS":"6925.409","ELEMENT_SET_NO":"999","ECCENTRICITY":"0.00011900","MEAN_MOTION":"15.06380347","OBJECT_NAME":"STARLINK-1557"},{"MEAN_MOTION_DDOT":"0.0000000000000","ARG_OF_PERICENTER":"75.1472","REV_AT_EPOCH":"11598","SITE":"AFETR","CENTER_NAME":"EARTH","PERIOD":"95.593","RA_OF_ASC_NODE":"112.3305","APOAPSIS":"548.202","TLE_LINE2":"2 46035  53.0540 112.3305 0001333  75.1472 284.9664 15.06378609115986","EPOCH":"2022-09-06T18:47:14.599968","LAUNCH_DATE":"2020-08-07","MEAN_ELEMENT_THEORY":"SGP4","NORAD_CAT_ID":"46035","INCLINATION":"53.0540","SEMIMAJOR_AXIS":"6925.414","ELEMENT_SET_NO":"999","TIME_SYSTEM":"UTC","MEAN_MOTION":"15.06378609","ECCENTRICITY":"0.00013330","OBJECT_NAME":"STARLINK-1558","DECAY_DATE":null,"MEAN_MOTION_DOT":"-0.00003187","OBJECT_ID":"2020-055J","REF_FRAME":"TEME","MEAN_ANOMALY":"284.9664","GP_ID":"211918274","BSTAR":"-0.00019525000000","EPHEMERIS_TYPE":"0","FILE":"3561419","CLASSIFICATION_TYPE":"U","RCS_SIZE":"LARGE","COUNTRY_CODE":"US","PERIAPSIS":"546.356","TLE_LINE1":"1 46035U 20055J   22249.78280787 -.00003187  00000-0 -19525-3 0  9992","OBJECT_TYPE":"PAYLOAD"},{"INCLINATION":"53.0548","MEAN_ELEMENT_THEORY":"SGP4","NORAD_CAT_ID":"46036","TIME_SYSTEM":"UTC","ELEMENT_SET_NO":"999","SEMIMAJOR_AXIS":"6925.396","ECCENTRICITY":"0.00015290","MEAN_MOTION":"15.06384670","OBJECT_NAME":"STARLINK-1560","CENTER_NAME":"EARTH","SITE":"AFETR","PERIOD":"95.593","ARG_OF_PERICENTER":"66.5310","REV_AT_EPOCH":"11598","MEAN_MOTION_DDOT":"0.0000000000000","RA_OF_ASC_NODE":"112.4208","APOAPSIS":"548.319","LAUNCH_DATE":"2020-08-07","EPOCH":"2022-09-06T18:26:00.261312","TLE_LINE2":"2 46036  53.0548 112.4208 0001529  66.5310 293.5840 15.06384670115987","RCS_SIZE":"LARGE","CLASSIFICATION_TYPE":"U","FILE":"3561419","COUNTRY_CODE":"US","OBJECT_TYPE":"PAYLOAD","TLE_LINE1":"1 46036U 20055K   22249.76805858 -.00003074  00000-0 -18765-3 0  9993","PERIAPSIS":"546.202","OBJECT_ID":"2020-055K","MEAN_MOTION_DOT":"-0.00003074","DECAY_DATE":null,"REF_FRAME":"TEME","MEAN_ANOMALY":"293.5840","EPHEMERIS_TYPE":"0","BSTAR":"-0.00018765000000","GP_ID":"211919026"}];
